[{"OBJECT_NAME":"METEOR-M2 4","OBJECT_ID":"2024-039A","EPOCH":"2026-03-10T00:01:13.262016","MEAN_MOTION":14.22417348,"ECCENTRICITY":0.0008181,"INCLINATION":98.6907,"RA_OF_ASC_NODE":29.6041,"ARG_OF_PERICENTER":95.5481,"MEAN_ANOMALY":264.6631,"EPHEMERIS_TYPE":0,"CLASSIFICATION_TYPE":"U","NORAD_CAT_ID":59051,"ELEMENT_SET_NO":999,"REV_AT_EPOCH":10516,"BSTAR":5.4288673e-5,"MEAN_MOTION_DOT":7.7e-7,"MEAN_MOTION_DDOT":0},{"OBJECT_NAME":"THORAD AGENA D DEB","OBJECT_ID":"1970-025PZ","EPOCH":"2026-03-09T13:44:24.356832","MEAN_MOTION":14.00682499,"ECCENTRICITY":0.01424192,"INCLINATION":98.75,"RA_OF_ASC_NODE":287.6081,"ARG_OF_PERICENTER":214.4166,"MEAN_ANOMALY":205.9219,"EPHEMERIS_TYPE":0,"CLASSIFICATION_TYPE":"U","NORAD_CAT_ID":19391,"ELEMENT_SET_NO":999,"REV_AT_EPOCH":90514,"BSTAR":0.0012903278,"MEAN_MOTION_DOT":2.056e-5,"MEAN_MOTION_DDOT":0}]
